<?xml version="1.0" encoding="UTF-8" standalone="no" ?>
<gpx xmlns="http://www.topografix.com/GPX/1/1" version="1.1" 
    creator="GeoTool by Gemini"
    xmlns:xsi="http://www.w3.org/2001/XMLSchema-instance"
    xsi:schemaLocation="http://www.topografix.com/GPX/1/1 http://www.topografix.com/GPX/1/1/gpx.xsd">
    <trk>
        <name>Converted Track</name>
        <trkseg>
            <trkpt lat="55.733323" lon="37.644530">
                <ele>0</ele>
            </trkpt>
            <trkpt lat="55.733759" lon="37.642552">
                <ele>0</ele>
            </trkpt>
            <trkpt lat="55.731937" lon="37.639358">
                <ele>0</ele>
            </trkpt>
            <trkpt lat="55.731196" lon="37.639891">
                <ele>0</ele>
            </trkpt>
            <trkpt lat="55.730856" lon="37.635911">
                <ele>0</ele>
            </trkpt>
            <trkpt lat="55.729870" lon="37.625346">
                <ele>0</ele>
            </trkpt>
            <trkpt lat="55.733642" lon="37.627548">
                <ele>0</ele>
            </trkpt>
            <trkpt lat="55.739736" lon="37.628368">
                <ele>0</ele>
            </trkpt>
            <trkpt lat="55.743938" lon="37.627732">
                <ele>0</ele>
            </trkpt>
            <trkpt lat="55.746904" lon="37.625885">
                <ele>0</ele>
            </trkpt>
            <trkpt lat="55.748503" lon="37.624322">
                <ele>0</ele>
            </trkpt>
            <trkpt lat="55.754041" lon="37.620805">
                <ele>0</ele>
            </trkpt>
            <trkpt lat="55.755787" lon="37.620250">
                <ele>0</ele>
            </trkpt>
            <trkpt lat="55.759439" lon="37.625415">
                <ele>0</ele>
            </trkpt>
            <trkpt lat="55.761559" lon="37.627583">
                <ele>0</ele>
            </trkpt>
            <trkpt lat="55.762106" lon="37.624292">
                <ele>0</ele>
            </trkpt>
            <trkpt lat="55.761546" lon="37.618486">
                <ele>0</ele>
            </trkpt>
            <trkpt lat="55.763678" lon="37.617382">
                <ele>0</ele>
            </trkpt>
            <trkpt lat="55.763533" lon="37.617367">
                <ele>0</ele>
            </trkpt>
            <trkpt lat="55.761569" lon="37.618372">
                <ele>0</ele>
            </trkpt>
            <trkpt lat="55.761053" lon="37.616650">
                <ele>0</ele>
            </trkpt>
            <trkpt lat="55.759784" lon="37.613140">
                <ele>0</ele>
            </trkpt>
            <trkpt lat="55.756286" lon="37.607004">
                <ele>0</ele>
            </trkpt>
        </trkseg>
    </trk>
</gpx>